{
  "type": "FeatureCollection",
  "features": [
    {
      "type": "Feature",
      "properties": {
        "norad_id": 36083,
        "name": "IRIDIUM 33 DEB",
        "group": "iridium-33-debris",
        "lat": -76.6319079036197,
        "lon": -128.99930656454038,
        "alt_km": 739.1866815691965,
        "timestamp": "2025-12-09T20:37:09.674635+00:00",
        "meta_object_name": "IRIDIUM 33 DEB",
        "meta_object_id": "1997-051VQ",
        "meta_epoch": "2025-12-06T21:32:26.892672",
        "meta_mean_motion": 14.43175138,
        "meta_eccentricity": 0.00247889,
        "meta_inclination": 86.3442,
        "meta_ra_of_asc_node": 36.6683,
        "meta_arg_of_pericenter": 243.3344,
        "meta_mean_anomaly": 116.5319,
        "meta_ephemeris_type": 0,
        "meta_classification_type": "U",
        "meta_norad_cat_id": 36083,
        "meta_element_set_no": 999,
        "meta_rev_at_epoch": 85365,
        "meta_bstar": 0.00098432537,
        "meta_mean_motion_dot": 3.337e-05,
        "meta_mean_motion_ddot": 0,
        "tle_line1": "1 36083U 97051VQ  25340.89753348  .00003337  00000+0  98433-3 0  9998",
        "tle_line2": "2 36083  86.3442  36.6683 0024788 243.3344 116.5319 14.43175138853653"
      },
      "geometry": {
        "type": "Point",
        "coordinates": [
          -128.99930656454038,
          -76.6319079036197
        ]
      }
    },
    {
      "type": "Feature",
      "properties": {
        "norad_id": 36390,
        "name": "IRIDIUM 33 DEB",
        "group": "iridium-33-debris",
        "lat": 59.09898412852136,
        "lon": 114.48739046968186,
        "alt_km": 630.8569789356934,
        "timestamp": "2025-12-09T20:37:09.674650+00:00",
        "meta_object_name": "IRIDIUM 33 DEB",
        "meta_object_id": "1997-051VU",
        "meta_epoch": "2025-12-08T14:44:10.068288",
        "meta_mean_motion": 14.7351876,
        "meta_eccentricity": 0.0029895,
        "meta_inclination": 86.2903,
        "meta_ra_of_asc_node": 301.2813,
        "meta_arg_of_pericenter": 175.8211,
        "meta_mean_anomaly": 184.3262,
        "meta_ephemeris_type": 0,
        "meta_classification_type": "U",
        "meta_norad_cat_id": 36390,
        "meta_element_set_no": 999,
        "meta_rev_at_epoch": 66201,
        "meta_bstar": 0.0016262,
        "meta_mean_motion_dot": 0.00010673,
        "meta_mean_motion_ddot": 0,
        "tle_line1": "1 36390U 97051VU  25342.61400542  .00010673  00000+0  16262-2 0  9996",
        "tle_line2": "2 36390  86.2903 301.2813 0029895 175.8211 184.3262 14.73518760662010"
      },
      "geometry": {
        "type": "Point",
        "coordinates": [
          114.48739046968186,
          59.09898412852136
        ]
      }
    },
    {
      "type": "Feature",
      "properties": {
        "norad_id": 36483,
        "name": "IRIDIUM 33 DEB",
        "group": "iridium-33-debris",
        "lat": 33.32945847248853,
        "lon": 56.10870321350601,
        "alt_km": 738.7396498762128,
        "timestamp": "2025-12-09T20:37:09.674661+00:00",
        "meta_object_name": "IRIDIUM 33 DEB",
        "meta_object_id": "1997-051VZ",
        "meta_epoch": "2025-12-08T11:14:38.908896",
        "meta_mean_motion": 14.45787314,
        "meta_eccentricity": 0.00108756,
        "meta_inclination": 86.3794,
        "meta_ra_of_asc_node": 54.3174,
        "meta_arg_of_pericenter": 137.8715,
        "meta_mean_anomaly": 222.3325,
        "meta_ephemeris_type": 0,
        "meta_classification_type": "U",
        "meta_norad_cat_id": 36483,
        "meta_element_set_no": 999,
        "meta_rev_at_epoch": 65084,
        "meta_bstar": 0.00090663472,
        "meta_mean_motion_dot": 3.235e-05,
        "meta_mean_motion_ddot": 0,
        "tle_line1": "1 36483U 97051VZ  25342.46850589  .00003235  00000+0  90663-3 0  9996",
        "tle_line2": "2 36483  86.3794  54.3174 0010875 137.8715 222.3325 14.45787314650846"
      },
      "geometry": {
        "type": "Point",
        "coordinates": [
          56.10870321350601,
          33.32945847248853
        ]
      }
    },
    {
      "type": "Feature",
      "properties": {
        "norad_id": 36490,
        "name": "IRIDIUM 33 DEB",
        "group": "iridium-33-debris",
        "lat": -23.756523472303847,
        "lon": 10.158978904128055,
        "alt_km": 648.7761061463734,
        "timestamp": "2025-12-09T20:37:09.674670+00:00",
        "meta_object_name": "IRIDIUM 33 DEB",
        "meta_object_id": "1997-051WG",
        "meta_epoch": "2025-12-09T01:12:10.854432",
        "meta_mean_motion": 14.76067725,
        "meta_eccentricity": 0.00055229,
        "meta_inclination": 86.3654,
        "meta_ra_of_asc_node": 12.1269,
        "meta_arg_of_pericenter": 91.2882,
        "meta_mean_anomaly": 268.897,
        "meta_ephemeris_type": 0,
        "meta_classification_type": "U",
        "meta_norad_cat_id": 36490,
        "meta_element_set_no": 999,
        "meta_rev_at_epoch": 86430,
        "meta_bstar": 0.0018321978,
        "meta_mean_motion_dot": 0.00012668,
        "meta_mean_motion_ddot": 0,
        "tle_line1": "1 36490U 97051WG  25343.05012563  .00012668  00000+0  18322-2 0  9993",
        "tle_line2": "2 36490  86.3654  12.1269 0005522  91.2882 268.8970 14.76067725864307"
      },
      "geometry": {
        "type": "Point",
        "coordinates": [
          10.158978904128055,
          -23.756523472303847
        ]
      }
    },
    {
      "type": "Feature",
      "properties": {
        "norad_id": 36493,
        "name": "IRIDIUM 33 DEB",
        "group": "iridium-33-debris",
        "lat": 12.212704689835899,
        "lon": 13.749573270639633,
        "alt_km": 670.3294488800675,
        "timestamp": "2025-12-09T20:37:09.674681+00:00",
        "meta_object_name": "IRIDIUM 33 DEB",
        "meta_object_id": "1997-051WK",
        "meta_epoch": "2025-12-08T19:58:38.259264",
        "meta_mean_motion": 14.65158506,
        "meta_eccentricity": 0.00106914,
        "meta_inclination": 86.3572,
        "meta_ra_of_asc_node": 13.4155,
        "meta_arg_of_pericenter": 18.0895,
        "meta_mean_anomaly": 342.0696,
        "meta_ephemeris_type": 0,
        "meta_classification_type": "U",
        "meta_norad_cat_id": 36493,
        "meta_element_set_no": 999,
        "meta_rev_at_epoch": 74461,
        "meta_bstar": 0.0020019244,
        "meta_mean_motion_dot": 0.00010799,
        "meta_mean_motion_ddot": 0,
        "tle_line1": "1 36493U 97051WK  25342.83238726  .00010799  00000+0  20019-2 0  9991",
        "tle_line2": "2 36493  86.3572  13.4155 0010691  18.0895 342.0696 14.65158506744618"
      },
      "geometry": {
        "type": "Point",
        "coordinates": [
          13.749573270639633,
          12.212704689835899
        ]
      }
    },
    {
      "type": "Feature",
      "properties": {
        "norad_id": 37548,
        "name": "IRIDIUM 33 DEB",
        "group": "iridium-33-debris",
        "lat": -16.308035457130323,
        "lon": 43.552562645285875,
        "alt_km": 741.1081375651302,
        "timestamp": "2025-12-09T20:37:09.674691+00:00",
        "meta_object_name": "IRIDIUM 33 DEB",
        "meta_object_id": "1997-051XH",
        "meta_epoch": "2025-12-08T21:31:39.163584",
        "meta_mean_motion": 14.51252553,
        "meta_eccentricity": 0.0025132,
        "meta_inclination": 86.3517,
        "meta_ra_of_asc_node": 45.0407,
        "meta_arg_of_pericenter": 201.7474,
        "meta_mean_anomaly": 158.2667,
        "meta_ephemeris_type": 0,
        "meta_classification_type": "U",
        "meta_norad_cat_id": 37548,
        "meta_element_set_no": 999,
        "meta_rev_at_epoch": 65476,
        "meta_bstar": 0.0012917,
        "meta_mean_motion_dot": 5.175e-05,
        "meta_mean_motion_ddot": 0,
        "tle_line1": "1 37548U 97051XH  25342.89698106  .00005175  00000+0  12917-2 0  9991",
        "tle_line2": "2 37548  86.3517  45.0407 0025132 201.7474 158.2667 14.51252553654763"
      },
      "geometry": {
        "type": "Point",
        "coordinates": [
          43.552562645285875,
          -16.308035457130323
        ]
      }
    },
    {
      "type": "Feature",
      "properties": {
        "norad_id": 37550,
        "name": "IRIDIUM 33 DEB",
        "group": "iridium-33-debris",
        "lat": -35.03710299490514,
        "lon": -152.3011969099734,
        "alt_km": 677.196655633099,
        "timestamp": "2025-12-09T20:37:09.674701+00:00",
        "meta_object_name": "IRIDIUM 33 DEB",
        "meta_object_id": "1997-051XK",
        "meta_epoch": "2025-12-06T21:15:18.690336",
        "meta_mean_motion": 14.67089693,
        "meta_eccentricity": 0.00053572,
        "meta_inclination": 86.377,
        "meta_ra_of_asc_node": 26.47,
        "meta_arg_of_pericenter": 124.88,
        "meta_mean_anomaly": 235.2918,
        "meta_ephemeris_type": 0,
        "meta_classification_type": "U",
        "meta_norad_cat_id": 37550,
        "meta_element_set_no": 999,
        "meta_rev_at_epoch": 86247,
        "meta_bstar": 0.0020360196,
        "meta_mean_motion_dot": 0.00011461,
        "meta_mean_motion_ddot": 0,
        "tle_line1": "1 37550U 97051XK  25340.88563299  .00011461  00000+0  20360-2 0  9991",
        "tle_line2": "2 37550  86.3770  26.4700 0005357 124.8800 235.2918 14.67089693862475"
      },
      "geometry": {
        "type": "Point",
        "coordinates": [
          -152.3011969099734,
          -35.03710299490514
        ]
      }
    }
  ]
}